{"type": "FeatureCollection", "features": [ {"type": "Feature", "properties": {"norad_id": 57401, "name": "TIANMU-1 09", "group": "weather", "lat": 9.651583719774376, "lon": 31.398465962837538, "alt_km": 482.9196386510821, "timestamp": "2025-12-09T09:46:47.290976+00:00", "meta": {"OBJECT_NAME": "TIANMU-1 09", "OBJECT_ID": "2023-101C", "EPOCH": "2025-12-08T22:44:07.725696", "MEAN_MOTION": 15.27996198, "ECCENTRICITY": 0.00068186, "INCLINATION": 97.2821, "RA_OF_ASC_NODE": 32.1949, "ARG_OF_PERICENTER": 93.9355, "MEAN_ANOMALY": 266.2664, "EPHEMERIS_TYPE": 0, "CLASSIFICATION_TYPE": "U", "NORAD_CAT_ID": 57401, "ELEMENT_SET_NO": 999, "REV_AT_EPOCH": 13257, "BSTAR": 0.00035003602, "MEAN_MOTION_DOT": 9.497e-05, "MEAN_MOTION_DDOT": 0}, "tle": {"line1": "1 57401U 23101C   25342.94731164  .00009497  00000+0  35004-3 0  9998", "line2": "2 57401  97.2821  32.1949 0006818  93.9355 266.2664 15.27996198132570"}}, "geometry": {"type": "Point", "coordinates": [31.398465962837538, 9.651583719774376]}}, {"type": "Feature", "properties": {"norad_id": 57402, "name": "TIANMU-1 10", "group": "weather", "lat": -2.1664070484096802, "lon": -146.78666251664265, "alt_km": 485.12442655543146, "timestamp": "2025-12-09T09:46:47.290992+00:00", "meta": {"OBJECT_NAME": "TIANMU-1 10", "OBJECT_ID": "2023-101D", "EPOCH": "2025-12-08T23:33:22.083840", "MEAN_MOTION": 15.2798746, "ECCENTRICITY": 0.00085563, "INCLINATION": 97.2902, "RA_OF_ASC_NODE": 33.0741, "ARG_OF_PERICENTER": 94.1447, "MEAN_ANOMALY": 266.0771, "EPHEMERIS_TYPE": 0, "CLASSIFICATION_TYPE": "U", "NORAD_CAT_ID": 57402, "ELEMENT_SET_NO": 999, "REV_AT_EPOCH": 13257, "BSTAR": 0.00034032168, "MEAN_MOTION_DOT": 9.232e-05, "MEAN_MOTION_DDOT": 0}, "tle": {"line1": "1 57402U 23101D   25342.98150560  .00009232  00000+0  34032-3 0  9995", "line2": "2 57402  97.2902  33.0741 0008556  94.1447 266.0771 15.27987460132576"}}, "geometry": {"type": "Point", "coordinates": [-146.78666251664265, -2.1664070484096802]}}, {"type": "Feature", "properties": {"norad_id": 57490, "name": "FENGYUN 3F", "group": "weather", "lat": -62.07470110410731, "lon": 68.56339571009471, "alt_km": 833.2989116434555, "timestamp": "2025-12-09T09:46:47.291008+00:00", "meta": {"OBJECT_NAME": "FENGYUN 3F", "OBJECT_ID": "2023-111A", "EPOCH": "2025-12-08T22:14:21.219936", "MEAN_MOTION": 14.19891917, "ECCENTRICITY": 6.6e-05, "INCLINATION": 98.7088, "RA_OF_ASC_NODE": 51.2815, "ARG_OF_PERICENTER": 94.6792, "MEAN_ANOMALY": 265.446, "EPHEMERIS_TYPE": 0, "CLASSIFICATION_TYPE": "U", "NORAD_CAT_ID": 57490, "ELEMENT_SET_NO": 999, "REV_AT_EPOCH": 12186, "BSTAR": 8.6714927e-05, "MEAN_MOTION_DOT": 1.4e-06, "MEAN_MOTION_DDOT": 0}, "tle": {"line1": "1 57490U 23111A   25342.92663449  .00000140  00000+0  86715-4 0  9997", "line2": "2 57490  98.7088  51.2815 0000660  94.6792 265.4460 14.19891917121863"}}, "geometry": {"type": "Point", "coordinates": [68.56339571009471, -62.07470110410731]}}, {"type": "Feature", "properties": {"norad_id": 58584, "name": "ARKTIKA-M 2", "group": "weather", "lat": 44.8166377723133, "lon": -154.62470464997907, "alt_km": 25233.166381890445, "timestamp": "2025-12-09T09:46:47.291027+00:00", "meta": {"OBJECT_NAME": "ARKTIKA-M 2", "OBJECT_ID": "2023-198A", "EPOCH": "2025-12-07T20:14:37.201632", "MEAN_MOTION": 2.00604572, "ECCENTRICITY": 0.68645726, "INCLINATION": 63.2245, "RA_OF_ASC_NODE": 175.4245, "ARG_OF_PERICENTER": 268.1228, "MEAN_ANOMALY": 18.8285, "EPHEMERIS_TYPE": 0, "CLASSIFICATION_TYPE": "U", "NORAD_CAT_ID": 58584, "ELEMENT_SET_NO": 999, "REV_AT_EPOCH": 1448, "BSTAR": 0, "MEAN_MOTION_DOT": 1.69e-06, "MEAN_MOTION_DDOT": 0}, "tle": {"line1": "1 58584U 23198A   25341.84348613  .00000169  00000+0  00000+0 0  9999", "line2": "2 58584  63.2245 175.4245 6864572 268.1228  18.8285  2.00604572 14484"}}, "geometry": {"type": "Point", "coordinates": [-154.62470464997907, 44.8166377723133]}}, {"type": "Feature", "properties": {"norad_id": 58645, "name": "TIANMU-1 11", "group": "weather", "lat": 42.185757626608066, "lon": -3.6387282086016373, "alt_km": 487.68982056927507, "timestamp": "2025-12-09T09:46:47.291046+00:00", "meta": {"OBJECT_NAME": "TIANMU-1 11", "OBJECT_ID": "2023-205A", "EPOCH": "2025-12-09T00:08:31.407648", "MEAN_MOTION": 15.24527849, "ECCENTRICITY": 0.0008248, "INCLINATION": 97.3606, "RA_OF_ASC_NODE": 2.6947, "ARG_OF_PERICENTER": 325.5319, "MEAN_ANOMALY": 34.5382, "EPHEMERIS_TYPE": 0, "CLASSIFICATION_TYPE": "U", "NORAD_CAT_ID": 58645, "ELEMENT_SET_NO": 999, "REV_AT_EPOCH": 10852, "BSTAR": 0.00032472716, "MEAN_MOTION_DOT": 7.928e-05, "MEAN_MOTION_DDOT": 0}, "tle": {"line1": "1 58645U 23205A   25343.00591907  .00007928  00000+0  32473-3 0  9995", "line2": "2 58645  97.3606   2.6947 0008248 325.5319  34.5382 15.24527849108527"}}, "geometry": {"type": "Point", "coordinates": [-3.6387282086016373, 42.185757626608066]}}, {"type": "Feature", "properties": {"norad_id": 58646, "name": "TIANMU-1 12", "group": "weather", "lat": -74.41313718111766, "lon": 155.29415121769142, "alt_km": 497.22256574205676, "timestamp": "2025-12-09T09:46:47.291065+00:00", "meta": {"OBJECT_NAME": "TIANMU-1 12", "OBJECT_ID": "2023-205B", "EPOCH": "2025-12-08T16:54:17.464320", "MEAN_MOTION": 15.2440473, "ECCENTRICITY": 0.00061116, "INCLINATION": 97.3594, "RA_OF_ASC_NODE": 2.2053, "ARG_OF_PERICENTER": 309.5629, "MEAN_ANOMALY": 50.5068, "EPHEMERIS_TYPE": 0, "CLASSIFICATION_TYPE": "U", "NORAD_CAT_ID": 58646, "ELEMENT_SET_NO": 999, "REV_AT_EPOCH": 10846, "BSTAR": 0.00036097392, "MEAN_MOTION_DOT": 8.785e-05, "MEAN_MOTION_DDOT": 0}, "tle": {"line1": "1 58646U 23205B   25342.70436880  .00008785  00000+0  36097-3 0  9998", "line2": "2 58646  97.3594   2.2053 0006111 309.5629  50.5068 15.24404730108466"}}, "geometry": {"type": "Point", "coordinates": [155.29415121769142, -74.41313718111766]}}, {"type": "Feature", "properties": {"norad_id": 58647, "name": "TIANMU-1 13", "group": "weather", "lat": 70.3409217554842, "lon": -18.12318767351322, "alt_km": 489.2003903008426, "timestamp": "2025-12-09T09:46:47.291082+00:00", "meta": {"OBJECT_NAME": "TIANMU-1 13", "OBJECT_ID": "2023-205C", "EPOCH": "2025-12-09T00:00:50.865408", "MEAN_MOTION": 15.24451341, "ECCENTRICITY": 0.00060775, "INCLINATION": 97.3622, "RA_OF_ASC_NODE": 2.6956, "ARG_OF_PERICENTER": 284.378, "MEAN_ANOMALY": 75.6783, "EPHEMERIS_TYPE": 0, "CLASSIFICATION_TYPE": "U", "NORAD_CAT_ID": 58647, "ELEMENT_SET_NO": 999, "REV_AT_EPOCH": 10850, "BSTAR": 0.00033434683, "MEAN_MOTION_DOT": 8.143e-05, "MEAN_MOTION_DDOT": 0}, "tle": {"line1": "1 58647U 23205C   25343.00058872  .00008143  00000+0  33435-3 0  9995", "line2": "2 58647  97.3622   2.6956 0006077 284.3780  75.6783 15.24451341108501"}}, "geometry": {"type": "Point", "coordinates": [-18.12318767351322, 70.3409217554842]}}, {"type": "Feature", "properties": {"norad_id": 58648, "name": "TIANMU-1 14", "group": "weather", "lat": 16.84316455571663, "lon": -175.31168914023104, "alt_km": 495.8686797955197, "timestamp": "2025-12-09T09:46:47.291101+00:00", "meta": {"OBJECT_NAME": "TIANMU-1 14", "OBJECT_ID": "2023-205D", "EPOCH": "2025-12-08T23:36:52.982784", "MEAN_MOTION": 15.24435059, "ECCENTRICITY": 0.00069408, "INCLINATION": 97.3555, "RA_OF_ASC_NODE": 2.0313, "ARG_OF_PERICENTER": 289.5524, "MEAN_ANOMALY": 70.4964, "EPHEMERIS_TYPE": 0, "CLASSIFICATION_TYPE": "U", "NORAD_CAT_ID": 58648, "ELEMENT_SET_NO": 999, "REV_AT_EPOCH": 10850, "BSTAR": 0.00031653901, "MEAN_MOTION_DOT": 7.702e-05, "MEAN_MOTION_DDOT": 0}, "tle": {"line1": "1 58648U 23205D   25342.98394656  .00007702  00000+0  31654-3 0  9996", "line2": "2 58648  97.3555   2.0313 0006940 289.5524  70.4964 15.24435059108502"}}, "geometry": {"type": "Point", "coordinates": [-175.31168914023104, 16.84316455571663]}}, {"type": "Feature", "properties": {"norad_id": 58660, "name": "TIANMU-1 19", "group": "weather", "lat": 17.77906822603112, "lon": 92.05017906834148, "alt_km": 483.9849534711657, "timestamp": "2025-12-09T09:46:47.291118+00:00", "meta": {"OBJECT_NAME": "TIANMU-1 19", "OBJECT_ID": "2023-208A", "EPOCH": "2025-12-08T22:41:52.265184", "MEAN_MOTION": 15.27740182, "ECCENTRICITY": 0.00040501, "INCLINATION": 97.4391, "RA_OF_ASC_NODE": 93.9908, "ARG_OF_PERICENTER": 270.1072, "MEAN_ANOMALY": 89.9703, "EPHEMERIS_TYPE": 0, "CLASSIFICATION_TYPE": "U", "NORAD_CAT_ID": 58660, "ELEMENT_SET_NO": 999, "REV_AT_EPOCH": 10824, "BSTAR": 0.00042708785, "MEAN_MOTION_DOT": 0.00011509, "MEAN_MOTION_DDOT": 0}, "tle": {"line1": "1 58660U 23208A   25342.94574381  .00011509  00000+0  42709-3 0  9997", "line2": "2 58660  97.4391  93.9908 0004050 270.1072  89.9703 15.27740182108244"}}, "geometry": {"type": "Point", "coordinates": [92.05017906834148, 17.77906822603112]}}, {"type": "Feature", "properties": {"norad_id": 58661, "name": "TIANMU-1 20", "group": "weather", "lat": 75.89658101061507, "lon": 63.58888668302683, "alt_km": 475.8260658199315, "timestamp": "2025-12-09T09:46:47.291134+00:00", "meta": {"OBJECT_NAME": "TIANMU-1 20", "OBJECT_ID": "2023-208B", "EPOCH": "2025-12-08T22:26:40.911936", "MEAN_MOTION": 15.28931327, "ECCENTRICITY": 0.00063415, "INCLINATION": 97.4329, "RA_OF_ASC_NODE": 94.4241, "ARG_OF_PERICENTER": 282.0132, "MEAN_ANOMALY": 78.0396, "EPHEMERIS_TYPE": 0, "CLASSIFICATION_TYPE": "U", "NORAD_CAT_ID": 58661, "ELEMENT_SET_NO": 999, "REV_AT_EPOCH": 10831, "BSTAR": 0.00041548376, "MEAN_MOTION_DOT": 0.00011613, "MEAN_MOTION_DDOT": 0}, "tle": {"line1": "1 58661U 23208B   25342.93519574  .00011613  00000+0  41548-3 0  9996", "line2": "2 58661  97.4329  94.4241 0006341 282.0132  78.0396 15.28931327108315"}}, "geometry": {"type": "Point", "coordinates": [63.58888668302683, 75.89658101061507]}}]}